TIANTONG-1 2            
1 46916U 20082A   21133.53352448 -.00000349  00000-0  00000-0 0  9999
2 46916   5.0751 298.7146 0003955 168.1801  81.5683  1.00267380  1997
LUCAS (JDRS-1)          
1 47202U 20089A   21132.69493868 -.00000227  00000-0  00000-0 0  9998
2 47202   0.0138 106.5090 0003551 274.0844 191.0413  1.00270654  1749
SXM-7                   
1 47240U 20096A   21132.62671295 -.00000013  00000-0  00000-0 0  9996
2 47240   0.0412  86.5894 0000854 233.9985  20.3800  1.00270063  1656
CMS-01                  
1 47256U 20099A   21132.69889841 -.00000156  00000-0  00000-0 0  9999
2 47256   0.0171  99.7479 0004568 192.5952 272.9947  1.00270875  1535
TURKSAT 5A              
1 47306U 21001A   21133.46623323  .00000164  00000-0  00000-0 0  9994
2 47306   0.0185 281.0742 0000290 308.6135 200.4957  1.00272120  1314
TIANTONG-1 3            
1 47321U 21003A   21133.64645975 -.00000149  00000-0  00000-0 0  9994
2 47321   5.2917 309.4845 0004451 153.5914  82.8050  1.00272648  1316
TJS-6                   
1 47613U 21010A   21133.62377234  .00000053  00000-0  00000-0 0  9997
2 47613   0.7956 282.0846 0000907 136.4875 216.0400  1.00273819  1173
